1 37673U 11024A   12153.64899342 -.00000049  00000-0  00000+0 0  9994
2 37673 098.0095 160.5315 0001183 094.8147 265.3221 14.72295420 52538
1 37673U 11024A   12153.92084147 -.00000049 +00000-0 +00000-0 0  9995
2 37673 098.0095 160.7992 0001179 093.8671 266.2673 14.72295436052579
1 37673U 11024A   12154.94027167 -.00000049 +00000-0 +00000-0 0  9997
2 37673 098.0093 161.8041 0001133 090.8801 269.2550 14.72296235052728
1 37673U 11024A   12155.07619560 -.00000049  00000-0  00000+0 0  9995
2 37673 098.0091 161.9383 0001132 086.7467 273.3894 14.72296569 52746
1 37673U 11024A   12155.95970109 -.00000049 +00000-0 +00000-0 0  9992
2 37673 098.0100 162.8088 0001140 097.1727 262.9650 14.72297306052871
1 37673U 11024A   12156.09562441 -.00000049  00000-0  00000+0 0  9993
2 37673 098.0100 162.9428 0001170 091.8624 268.2730 14.72297604 52891
1 37673U 11024A   12156.91116754 -.00000049 +00000-0 +00000-0 0  9997
2 37673 098.0100 163.7465 0001152 093.0411 267.0931 14.72298059053019
1 37673U 11024A   12157.11505353 -.00000049  00000-0  00000+0 0  9996
2 37673 098.0097 163.9477 0001130 079.5804 280.5566 14.72298550 53043
1 37673U 11024A   12157.93059582 -.00000049 +00000-0 +00000-0 0  9995
2 37673 098.0090 164.7510 0001164 086.6106 273.5254 14.72299045053163
1 37673U 11024A   12158.33836650 -.00000049  00000-0  00000+0 0  9998
2 37673 098.0083 165.1530 0001153 083.6011 276.5341 14.72299607 53223
1 37673U 11024A   12158.95002276 -.00000049 +00000-0 +00000-0 0  9996
2 37673 098.0085 165.7558 0001175 089.5379 270.5990 14.72300212053316
1 37673U 11024A   12159.42575525 -.00000049  00000-0  00000+0 0  9990
2 37673 098.0081 166.2245 0001235 085.7256 274.4119 14.72300861 53383
1 37673U 11024A   12159.76556336 -.00000049 +00000-0 +00000-0 0  9997
2 37673 098.0084 166.5596 0001218 091.8128 268.3220 14.72301230053437
1 37673U 11024A   12160.64906624 -.00000049  00000-0  00000+0 0  9994
2 37673 098.0088 167.4304 0001200 092.9843 267.1543 14.72302218 53561
1 37673U 11024A   12160.92091275 -.00000049 +00000-0 +00000-0 0  9993
2 37673 098.0088 167.6982 0001201 092.0872 268.0477 14.72302272053600
1 37673U 11024A   12161.94033745 -.00000049 +00000-0 +00000-0 0  9994
2 37673 098.0092 168.7031 0001144 090.6169 269.5188 14.72303391053755
1 37673U 11024A   12162.07626062 -.00000049  00000-0  00000+0 0  9998
2 37673 098.0093 168.8373 0001166 084.3042 275.8331 14.72303891 53777
1 37673U 11024A   12162.95976161 -.00000049 +00000-0 +00000-0 0  9994
2 37673 098.0094 169.7079 0001113 090.2834 269.8530 14.72304549053908
1 37673U 11024A   12163.09568448 -.00000049  00000-0  00000+0 0  9994
2 37673 098.0093 169.8417 0001154 085.7123 274.4230 14.72304873 53920
1 37673U 11024A   12163.91122365 -.00000049 +00000-0 +00000-0 0  9990
2 37673 098.0096 170.6455 0001118 091.2930 268.8408 14.72305267054049
1 37673U 11024A   12164.11510862 -.00000049  00000-0  00000+0 0  9995
2 37673 098.0093 170.8466 0001099 080.5649 279.5724 14.72305775 54073
1 37673U 11024A   12164.93064678 -.00000049 +00000-0 +00000-0 0  9995
2 37673 098.0096 171.6505 0001090 084.3836 275.7505 14.72306190054190
1 37673U 11024A   12165.20249242 -.00000049  00000-0  00000+0 0  9997
2 37673 098.0091 171.9186 0001093 075.4178 284.7152 14.72306646 54235
1 37673U 11024A   12165.95006897 -.00000049 +00000-0 +00000-0 0  9997
2 37673 098.0090 172.6550 0001089 083.3101 276.8248 14.72307262054341
1 37673U 11024A   12166.42579921 -.00000049  00000-0  00000+0 0  9992
2 37673 098.0088 173.1237 0001152 083.5723 276.5638 14.72307865 54416
1 37673U 11024A   12166.90152866 -.00000049 +00000-0 +00000-0 0  9991
2 37673 098.0089 173.5927 0001137 090.4165 269.7172 14.72308312054489
